STARLINK-1434           
1 45712U 20035BH  26068.24137979  .00054112  00000+0  20295-2 0  9995
2 45712  53.0547  22.1128 0005343  88.0400 272.1210 15.26724568319325
STARLINK-36515          
1 67430U 26005AC  26067.57094610  .00039239  00000+0  14270-2 0  9997
2 67430  42.9999 244.4472 0001614 259.2943 100.7727 15.27599080  8511
