[{"OBJECT_NAME":"STARLINK-1434","OBJECT_ID":"2020-035BH","EPOCH":"2026-03-09T05:47:35.213856","MEAN_MOTION":15.26724568,"ECCENTRICITY":0.00053438,"INCLINATION":53.0547,"RA_OF_ASC_NODE":22.1128,"ARG_OF_PERICENTER":88.04,"MEAN_ANOMALY":272.121,"EPHEMERIS_TYPE":0,"CLASSIFICATION_TYPE":"U","NORAD_CAT_ID":45712,"ELEMENT_SET_NO":999,"REV_AT_EPOCH":31932,"BSTAR":0.0020295208,"MEAN_MOTION_DOT":0.00054112,"MEAN_MOTION_DDOT":0},{"OBJECT_NAME":"STARLINK-36515","OBJECT_ID":"2026-005AC","EPOCH":"2026-03-08T13:42:09.743040","MEAN_MOTION":15.2759908,"ECCENTRICITY":0.00016148,"INCLINATION":42.9999,"RA_OF_ASC_NODE":244.4472,"ARG_OF_PERICENTER":259.2943,"MEAN_ANOMALY":100.7727,"EPHEMERIS_TYPE":0,"CLASSIFICATION_TYPE":"U","NORAD_CAT_ID":67430,"ELEMENT_SET_NO":999,"REV_AT_EPOCH":851,"BSTAR":0.0014270247,"MEAN_MOTION_DOT":0.00039239,"MEAN_MOTION_DDOT":0}]
